ONEWEB-0320             
1 49190U 21083E   25354.30889727  .00000070  00000+0  14513-3 0  9993
2 49190  87.9172  10.9940 0001775  92.4609 267.6727 13.18687057206407
ONEWEB-0321             
1 49191U 21083F   25354.26340198 -.00000031  00000+0 -10832-3 0  9992
2 49191  87.9214 310.1180 0001832  72.2143 287.9190 13.20771727213216
ONEWEB-0322             
1 49192U 21083G   25354.44275845  .00000030  00000+0  46934-4 0  9999
2 49192  87.8968 355.7775 0001953  75.6140 284.5206 13.13472111207452
ONEWEB-0324             
1 49193U 21083H   25354.44662307  .00000069  00000+0  14313-3 0  9990
2 49193  87.9176  10.9444 0001642  93.6313 266.5007 13.18686604206441
ONEWEB-0325             
1 49194U 21083J   25354.44992042  .00000057  00000+0  11214-3 0  9997
2 49194  87.9176  10.9630 0001824  90.9676 269.1665 13.18687717206459
ONEWEB-0326             
1 49195U 21083K   25354.46491052  .00000075  00000+0  15677-3 0  9992
2 49195  87.9175  10.9471 0001952 100.7323 259.4029 13.18686801206441
ONEWEB-0327             
1 49196U 21083L   25354.46462823  .00000038  00000+0  63450-4 0  9999
2 49196  87.9167  10.9658 0002122  99.7573 260.3799 13.18686484206468
ONEWEB-0328             
1 49197U 21083M   25354.43259156 -.00000228  00000+0 -65811-3 0  9995
2 49197  87.8981 355.7283 0001589  90.8147 269.3164 13.13471907207431
